[{"OBJECT_NAME":"STARLINK-3059","OBJECT_ID":"2021-082BD","EPOCH":"2026-03-09T22:26:33.514368","MEAN_MOTION":14.98326436,"ECCENTRICITY":0.00023522,"INCLINATION":69.9989,"RA_OF_ASC_NODE":293.8388,"ARG_OF_PERICENTER":266.3981,"MEAN_ANOMALY":93.6909,"EPHEMERIS_TYPE":0,"CLASSIFICATION_TYPE":"U","NORAD_CAT_ID":49181,"ELEMENT_SET_NO":999,"REV_AT_EPOCH":24720,"BSTAR":-0.00010428634,"MEAN_MOTION_DOT":-1.337e-5,"MEAN_MOTION_DDOT":0},{"OBJECT_NAME":"PEGASUS DEB","OBJECT_ID":"1994-029AEJ","EPOCH":"2026-03-07T20:29:03.447168","MEAN_MOTION":14.33296857,"ECCENTRICITY":0.02963752,"INCLINATION":81.9754,"RA_OF_ASC_NODE":115.503,"ARG_OF_PERICENTER":180.1454,"MEAN_ANOMALY":179.97,"EPHEMERIS_TYPE":0,"CLASSIFICATION_TYPE":"U","NORAD_CAT_ID":27679,"ELEMENT_SET_NO":999,"REV_AT_EPOCH":25203,"BSTAR":0.00070363427,"MEAN_MOTION_DOT":3.191e-5,"MEAN_MOTION_DDOT":0}]
